start=new Date('2022-02-27T00:00:00.000Z').valueOf();
sats=[{"OBJECT_ID":"2021-017S","FILE":"3327391","APOAPSIS":"547.347","ECCENTRICITY":"0.00002350","NORAD_CAT_ID":"47738","TIME_SYSTEM":"UTC","GP_ID":"197160000","MEAN_ANOMALY":"317.4642","PERIAPSIS":"547.021","INCLINATION":"53.0538","PERIOD":"95.592","BSTAR":"0.00017147000000","SITE":"AFETR","MEAN_MOTION_DOT":"0.00002275","SEMIMAJOR_AXIS":"6925.319","OBJECT_NAME":"STARLINK-2149","ELEMENT_SET_NO":"999","DECAY_DATE":null,"OBJECT_TYPE":"PAYLOAD","RA_OF_ASC_NODE":"329.4148","EPOCH":"2022-02-26T18:01:55.814880","TLE_LINE2":"2 47738  53.0538 329.4148 0000235  42.6365 317.4642 15.06409579 56062","COUNTRY_CODE":"US","REF_FRAME":"TEME","MEAN_MOTION_DDOT":"0.0000000000000","CLASSIFICATION_TYPE":"U","CENTER_NAME":"EARTH","MEAN_MOTION":"15.06409579","LAUNCH_DATE":"2021-03-04","ARG_OF_PERICENTER":"42.6365","REV_AT_EPOCH":"5606","RCS_SIZE":"LARGE","MEAN_ELEMENT_THEORY":"SGP4","TLE_LINE1":"1 47738U 21017S   22057.75134045  .00002275  00000-0  17147-3 0  9994","EPHEMERIS_TYPE":"0"},{"MEAN_ELEMENT_THEORY":"SGP4","REV_AT_EPOCH":"5573","RCS_SIZE":"LARGE","LAUNCH_DATE":"2021-03-04","ARG_OF_PERICENTER":"61.6642","EPHEMERIS_TYPE":"0","TLE_LINE1":"1 47739U 21017T   22057.86515699  .00002194  00000-0  16613-3 0  9992","EPOCH":"2022-02-26T20:45:49.563936","TLE_LINE2":"2 47739  53.0557 353.8998 0001671  61.6642 298.4515 15.06397078 55732","MEAN_MOTION":"15.06397078","REF_FRAME":"TEME","CENTER_NAME":"EARTH","MEAN_MOTION_DDOT":"0.0000000000000","CLASSIFICATION_TYPE":"U","COUNTRY_CODE":"US","BSTAR":"0.00016613000000","INCLINATION":"53.0557","PERIOD":"95.592","MEAN_ANOMALY":"298.4515","PERIAPSIS":"546.065","OBJECT_TYPE":"PAYLOAD","RA_OF_ASC_NODE":"353.8998","DECAY_DATE":null,"SITE":"AFETR","MEAN_MOTION_DOT":"0.00002194","SEMIMAJOR_AXIS":"6925.358","ELEMENT_SET_NO":"999","OBJECT_NAME":"STARLINK-2150","ECCENTRICITY":"0.00016710","NORAD_CAT_ID":"47739","OBJECT_ID":"2021-017T","FILE":"3327391","APOAPSIS":"548.380","GP_ID":"197159253","TIME_SYSTEM":"UTC"},{"EPHEMERIS_TYPE":"0","TLE_LINE1":"1 47740U 21017U   22057.91261568 -.00000002  00000-0  18807-4 0  9998","REV_AT_EPOCH":"5594","RCS_SIZE":"LARGE","MEAN_ELEMENT_THEORY":"SGP4","LAUNCH_DATE":"2021-03-04","ARG_OF_PERICENTER":"61.3764","MEAN_MOTION":"15.06394427","COUNTRY_CODE":"US","REF_FRAME":"TEME","MEAN_MOTION_DDOT":"0.0000000000000","CENTER_NAME":"EARTH","CLASSIFICATION_TYPE":"U","EPOCH":"2022-02-26T21:54:09.994752","TLE_LINE2":"2 47740  53.0550 338.6889 0001770  61.3764 298.7403 15.06394427 55946","DECAY_DATE":null,"OBJECT_TYPE":"PAYLOAD","RA_OF_ASC_NODE":"338.6889","SITE":"AFETR","ELEMENT_SET_NO":"999","SEMIMAJOR_AXIS":"6925.366","MEAN_MOTION_DOT":"-0.00000002","OBJECT_NAME":"STARLINK-2152","BSTAR":"0.00001880700000","MEAN_ANOMALY":"298.7403","PERIAPSIS":"546.005","INCLINATION":"53.0550","PERIOD":"95.592","TIME_SYSTEM":"UTC","GP_ID":"197159503","NORAD_CAT_ID":"47740","ECCENTRICITY":"0.00017700","OBJECT_ID":"2021-017U","FILE":"3327391","APOAPSIS":"548.456"},{"SITE":"AFETR","SEMIMAJOR_AXIS":"6925.354","MEAN_MOTION_DOT":"0.00001943","ELEMENT_SET_NO":"999","OBJECT_NAME":"STARLINK-2154","DECAY_DATE":null,"OBJECT_TYPE":"PAYLOAD","RA_OF_ASC_NODE":"338.6228","MEAN_ANOMALY":"304.3774","PERIAPSIS":"546.147","PERIOD":"95.592","INCLINATION":"53.0550","BSTAR":"0.00014932000000","TIME_SYSTEM":"UTC","GP_ID":"197159754","OBJECT_ID":"2021-017V","FILE":"3327391","APOAPSIS":"548.290","ECCENTRICITY":"0.00015470","NORAD_CAT_ID":"47741","TLE_LINE1":"1 47741U 21017V   22057.92735481  .00001943  00000-0  14932-3 0  9998","EPHEMERIS_TYPE":"0","ARG_OF_PERICENTER":"55.7361","LAUNCH_DATE":"2021-03-04","REV_AT_EPOCH":"5590","RCS_SIZE":"LARGE","MEAN_ELEMENT_THEORY":"SGP4","COUNTRY_CODE":"US","REF_FRAME":"TEME","CLASSIFICATION_TYPE":"U","MEAN_MOTION_DDOT":"0.0000000000000","CENTER_NAME":"EARTH","MEAN_MOTION":"15.06398315","EPOCH":"2022-02-26T22:15:23.455584","TLE_LINE2":"2 47741  53.0550 338.6228 0001547  55.7361 304.3774 15.06398315 55907"},{"TLE_LINE2":"2 47742  53.0534 328.8757 0001731  67.8008 292.3164 15.06398179 56082","EPOCH":"2022-02-26T20:57:06.289344","MEAN_MOTION":"15.06398179","MEAN_MOTION_DDOT":"0.0000000000000","CLASSIFICATION_TYPE":"U","CENTER_NAME":"EARTH","REF_FRAME":"TEME","COUNTRY_CODE":"US","MEAN_ELEMENT_THEORY":"SGP4","RCS_SIZE":"LARGE","REV_AT_EPOCH":"5608","ARG_OF_PERICENTER":"67.8008","LAUNCH_DATE":"2021-03-04","EPHEMERIS_TYPE":"0","TLE_LINE1":"1 47742U 21017W   22057.87298946  .00003018  00000-0  22143-3 0  9991","ECCENTRICITY":"0.00017310","NORAD_CAT_ID":"47742","APOAPSIS":"548.418","OBJECT_ID":"2021-017W","FILE":"3327391","GP_ID":"197160501","TIME_SYSTEM":"UTC","BSTAR":"0.00022143000000","PERIOD":"95.592","INCLINATION":"53.0534","PERIAPSIS":"546.020","MEAN_ANOMALY":"292.3164","RA_OF_ASC_NODE":"328.8757","OBJECT_TYPE":"PAYLOAD","DECAY_DATE":null,"SEMIMAJOR_AXIS":"6925.354","MEAN_MOTION_DOT":"0.00003018","ELEMENT_SET_NO":"999","OBJECT_NAME":"STARLINK-2156","SITE":"AFETR"},{"ARG_OF_PERICENTER":"66.5215","LAUNCH_DATE":"2021-03-04","MEAN_ELEMENT_THEORY":"SGP4","RCS_SIZE":"LARGE","REV_AT_EPOCH":"5606","TLE_LINE1":"1 47743U 21017X   22057.89879395 -.00000416  00000-0 -90577-5 0  9996","EPHEMERIS_TYPE":"0","TLE_LINE2":"2 47743  53.0565 328.7457 0001750  66.5215 293.5958 15.06392959 56062","EPOCH":"2022-02-26T21:34:15.797280","CENTER_NAME":"EARTH","MEAN_MOTION_DDOT":"0.0000000000000","CLASSIFICATION_TYPE":"U","REF_FRAME":"TEME","COUNTRY_CODE":"US","MEAN_MOTION":"15.06392959","INCLINATION":"53.0565","PERIOD":"95.593","PERIAPSIS":"546.023","MEAN_ANOMALY":"293.5958","BSTAR":"-0.00000905770000","SEMIMAJOR_AXIS":"6925.370","OBJECT_NAME":"STARLINK-2157","MEAN_MOTION_DOT":"-0.00000416","ELEMENT_SET_NO":"999","SITE":"AFETR","RA_OF_ASC_NODE":"328.7457","OBJECT_TYPE":"PAYLOAD","DECAY_DATE":null,"APOAPSIS":"548.447","OBJECT_ID":"2021-017X","FILE":"3327391","NORAD_CAT_ID":"47743","ECCENTRICITY":"0.00017500","GP_ID":"197158753","TIME_SYSTEM":"UTC"},{"GP_ID":"197159003","TIME_SYSTEM":"UTC","OBJECT_ID":"2021-017Y","FILE":"3327391","APOAPSIS":"548.387","NORAD_CAT_ID":"47744","ECCENTRICITY":"0.00016890","SITE":"AFETR","MEAN_MOTION_DOT":"0.00000706","SEMIMAJOR_AXIS":"6925.352","OBJECT_NAME":"STARLINK-2158","ELEMENT_SET_NO":"999","OBJECT_TYPE":"PAYLOAD","RA_OF_ASC_NODE":"328.8555","DECAY_DATE":null,"PERIOD":"95.592","INCLINATION":"53.0548","MEAN_ANOMALY":"293.7022","PERIAPSIS":"546.048","BSTAR":"0.00006632600000","REF_FRAME":"TEME","CLASSIFICATION_TYPE":"U","MEAN_MOTION_DDOT":"0.0000000000000","CENTER_NAME":"EARTH","COUNTRY_CODE":"US","MEAN_MOTION":"15.06398722","EPOCH":"2022-02-26T21:02:23.739360","TLE_LINE2":"2 47744  53.0548 328.8555 0001689  66.4144 293.7022 15.06398722 56085","TLE_LINE1":"1 47744U 21017Y   22057.87666365  .00000706  00000-0  66326-4 0  9990","EPHEMERIS_TYPE":"0","ARG_OF_PERICENTER":"66.4144","LAUNCH_DATE":"2021-03-04","MEAN_ELEMENT_THEORY":"SGP4","REV_AT_EPOCH":"5608","RCS_SIZE":"LARGE"},{"DECAY_DATE":null,"RA_OF_ASC_NODE":"339.3256","OBJECT_TYPE":"PAYLOAD","SEMIMAJOR_AXIS":"6925.382","ELEMENT_SET_NO":"999","MEAN_MOTION_DOT":"-0.00000726","OBJECT_NAME":"STARLINK-2159","SITE":"AFETR","BSTAR":"-0.00002983900000","PERIAPSIS":"546.075","MEAN_ANOMALY":"293.5246","INCLINATION":"53.0538","PERIOD":"95.593","TIME_SYSTEM":"UTC","GP_ID":"197160255","NORAD_CAT_ID":"47745","ECCENTRICITY":"0.00016920","APOAPSIS":"548.418","OBJECT_ID":"2021-017Z","FILE":"3327391","EPHEMERIS_TYPE":"0","TLE_LINE1":"1 47745U 21017Z   22057.77254811 -.00000726  00000-0 -29839-4 0  9991","RCS_SIZE":"LARGE","REV_AT_EPOCH":"5587","MEAN_ELEMENT_THEORY":"SGP4","ARG_OF_PERICENTER":"66.5921","LAUNCH_DATE":"2021-03-04","MEAN_MOTION":"15.06389194","COUNTRY_CODE":"US","CLASSIFICATION_TYPE":"U","MEAN_MOTION_DDOT":"0.0000000000000","CENTER_NAME":"EARTH","REF_FRAME":"TEME","TLE_LINE2":"2 47745  53.0538 339.3256 0001692  66.5921 293.5246 15.06389194 55873","EPOCH":"2022-02-26T18:32:28.156704"},{"COUNTRY_CODE":"US","CENTER_NAME":"EARTH","MEAN_MOTION_DDOT":"0.0000000000000","CLASSIFICATION_TYPE":"U","REF_FRAME":"TEME","MEAN_MOTION":"15.06390283","TLE_LINE2":"2 47746  53.0557 341.4230 0001910  61.3968 298.7213 15.06390283 55791","EPOCH":"2022-02-26T07:13:04.543392","TLE_LINE1":"1 47746U 21017AA  22057.30074703  .00001126  00000-0  94499-4 0  9998","EPHEMERIS_TYPE":"0","ARG_OF_PERICENTER":"61.3968","LAUNCH_DATE":"2021-03-04","RCS_SIZE":"LARGE","REV_AT_EPOCH":"5579","MEAN_ELEMENT_THEORY":"SGP4","TIME_SYSTEM":"UTC","GP_ID":"197112192","APOAPSIS":"548.566","FILE":"3326397","OBJECT_ID":"2021-017AA","ECCENTRICITY":"0.00019100","NORAD_CAT_ID":"47746","SEMIMAJOR_AXIS":"6925.378","OBJECT_NAME":"STARLINK-2160","MEAN_MOTION_DOT":"0.00001126","ELEMENT_SET_NO":"999","SITE":"AFETR","DECAY_DATE":null,"RA_OF_ASC_NODE":"341.4230","OBJECT_TYPE":"PAYLOAD","PERIAPSIS":"545.921","MEAN_ANOMALY":"298.7213","INCLINATION":"53.0557","PERIOD":"95.593","BSTAR":"0.00009449900000"},{"ECCENTRICITY":"0.00017930","NORAD_CAT_ID":"47747","APOAPSIS":"548.442","FILE":"3327391","OBJECT_ID":"2021-017AB","GP_ID":"197159254","TIME_SYSTEM":"UTC","BSTAR":"0.00015419000000","PERIOD":"95.592","INCLINATION":"53.0530","PERIAPSIS":"545.959","MEAN_ANOMALY":"300.5958","RA_OF_ASC_NODE":"328.7738","OBJECT_TYPE":"PAYLOAD","DECAY_DATE":null,"SEMIMAJOR_AXIS":"6925.335","ELEMENT_SET_NO":"999","MEAN_MOTION_DOT":"0.00002016","OBJECT_NAME":"STARLINK-2161","SITE":"AFETR","TLE_LINE2":"2 47747  53.0530 328.7738 0001793  59.5208 300.5958 15.06404290 56062","EPOCH":"2022-02-26T21:28:57.300960","MEAN_MOTION":"15.06404290","MEAN_MOTION_DDOT":"0.0000000000000","CLASSIFICATION_TYPE":"U","CENTER_NAME":"EARTH","REF_FRAME":"TEME","COUNTRY_CODE":"US","MEAN_ELEMENT_THEORY":"SGP4","RCS_SIZE":"LARGE","REV_AT_EPOCH":"5606","ARG_OF_PERICENTER":"59.5208","LAUNCH_DATE":"2021-03-04","EPHEMERIS_TYPE":"0","TLE_LINE1":"1 47747U 21017AB  22057.89510765  .00002016  00000-0  15419-3 0  9999"}];
